{
  "type": "FeatureCollection",
  "features": [
    {
      "type": "Feature",
      "properties": {
        "norad_id": 38755,
        "name": "SPOT 6",
        "group": "resource",
        "lat": -66.47686448730025,
        "lon": -140.1951447319019,
        "alt_km": 706.0425739902475,
        "timestamp": "2025-12-20T09:36:01.288561+00:00",
        "meta_object_name": "SPOT 6",
        "meta_object_id": "2012-047A",
        "meta_epoch": "2025-12-20T03:31:41.647584",
        "meta_mean_motion": 14.58538,
        "meta_eccentricity": 0.000131,
        "meta_inclination": 98.1571,
        "meta_ra_of_asc_node": 58.7955,
        "meta_arg_of_pericenter": 79.8987,
        "meta_mean_anomaly": 280.2361,
        "meta_ephemeris_type": 0,
        "meta_classification_type": "U",
        "meta_norad_cat_id": 38755,
        "meta_element_set_no": 999,
        "meta_rev_at_epoch": 70695,
        "meta_bstar": 3.3217e-05,
        "meta_mean_motion_dot": 1.09e-06,
        "meta_mean_motion_ddot": 0,
        "tle_line1": "1 38755U 12047A   25354.14700981  .00000109  00000+0  33217-4 0  9990",
        "tle_line2": "2 38755  98.1571  58.7955 0001310  79.8987 280.2361 14.58538000706956"
      },
      "geometry": {
        "type": "Point",
        "coordinates": [
          -140.1951447319019,
          -66.47686448730025
        ]
      }
    },
    {
      "type": "Feature",
      "properties": {
        "norad_id": 39019,
        "name": "PLEIADES 1B",
        "group": "resource",
        "lat": 33.63772093122365,
        "lon": -107.57739586091485,
        "alt_km": 695.3019853667865,
        "timestamp": "2025-12-20T09:36:01.288570+00:00",
        "meta_object_name": "PLEIADES 1B",
        "meta_object_id": "2012-068A",
        "meta_epoch": "2025-12-20T03:59:40.418592",
        "meta_mean_motion": 14.58558717,
        "meta_eccentricity": 0.0001163,
        "meta_inclination": 98.1794,
        "meta_ra_of_asc_node": 66.7013,
        "meta_arg_of_pericenter": 86.9376,
        "meta_mean_anomaly": 273.1957,
        "meta_ephemeris_type": 0,
        "meta_classification_type": "U",
        "meta_norad_cat_id": 39019,
        "meta_element_set_no": 999,
        "meta_rev_at_epoch": 69475,
        "meta_bstar": 3.8218e-05,
        "meta_mean_motion_dot": 1.32e-06,
        "meta_mean_motion_ddot": 0,
        "tle_line1": "1 39019U 12068A   25354.16644003  .00000132  00000+0  38218-4 0  9993",
        "tle_line2": "2 39019  98.1794  66.7013 0001163  86.9376 273.1957 14.58558717694751"
      },
      "geometry": {
        "type": "Point",
        "coordinates": [
          -107.57739586091485,
          33.63772093122365
        ]
      }
    },
    {
      "type": "Feature",
      "properties": {
        "norad_id": 39030,
        "name": "GOKTURK 2",
        "group": "resource",
        "lat": 75.85158858045774,
        "lon": 48.08205761097634,
        "alt_km": 636.146653611795,
        "timestamp": "2025-12-20T09:36:01.288581+00:00",
        "meta_object_name": "GOKTURK 2",
        "meta_object_id": "2012-073A",
        "meta_epoch": "2025-12-20T04:15:24.924384",
        "meta_mean_motion": 14.75299338,
        "meta_eccentricity": 0.0001254,
        "meta_inclination": 97.6886,
        "meta_ra_of_asc_node": 195.4647,
        "meta_arg_of_pericenter": 107.8104,
        "meta_mean_anomaly": 252.3243,
        "meta_ephemeris_type": 0,
        "meta_classification_type": "U",
        "meta_norad_cat_id": 39030,
        "meta_element_set_no": 999,
        "meta_rev_at_epoch": 69811,
        "meta_bstar": 1.5653e-05,
        "meta_mean_motion_dot": 5.9e-07,
        "meta_mean_motion_ddot": 0,
        "tle_line1": "1 39030U 12073A   25354.17737181  .00000059  00000+0  15653-4 0  9999",
        "tle_line2": "2 39030  97.6886 195.4647 0001254 107.8104 252.3243 14.75299338698117"
      },
      "geometry": {
        "type": "Point",
        "coordinates": [
          48.08205761097634,
          75.85158858045774
        ]
      }
    },
    {
      "type": "Feature",
      "properties": {
        "norad_id": 39084,
        "name": "LANDSAT 8",
        "group": "resource",
        "lat": -79.74116189360242,
        "lon": 115.23691130808358,
        "alt_km": 710.6234958900968,
        "timestamp": "2025-12-20T09:36:01.288591+00:00",
        "meta_object_name": "LANDSAT 8",
        "meta_object_id": "2013-008A",
        "meta_epoch": "2025-12-20T03:23:32.556192",
        "meta_mean_motion": 14.57109573,
        "meta_eccentricity": 0.0001083,
        "meta_inclination": 98.2063,
        "meta_ra_of_asc_node": 62.1053,
        "meta_arg_of_pericenter": 90.5011,
        "meta_mean_anomaly": 269.6312,
        "meta_ephemeris_type": 0,
        "meta_classification_type": "U",
        "meta_norad_cat_id": 39084,
        "meta_element_set_no": 999,
        "meta_rev_at_epoch": 67182,
        "meta_bstar": 7.4801e-05,
        "meta_mean_motion_dot": 2.92e-06,
        "meta_mean_motion_ddot": 0,
        "tle_line1": "1 39084U 13008A   25354.14134903  .00000292  00000+0  74801-4 0  9996",
        "tle_line2": "2 39084  98.2063  62.1053 0001083  90.5011 269.6312 14.57109573671824"
      },
      "geometry": {
        "type": "Point",
        "coordinates": [
          115.23691130808358,
          -79.74116189360242
        ]
      }
    },
    {
      "type": "Feature",
      "properties": {
        "norad_id": 39086,
        "name": "SARAL",
        "group": "resource",
        "lat": -48.02952181708555,
        "lon": -172.1412384896522,
        "alt_km": 791.0065922874746,
        "timestamp": "2025-12-20T09:36:01.288601+00:00",
        "meta_object_name": "SARAL",
        "meta_object_id": "2013-009A",
        "meta_epoch": "2025-12-20T03:07:24.068352",
        "meta_mean_motion": 14.32759395,
        "meta_eccentricity": 0.0002958,
        "meta_inclination": 98.5502,
        "meta_ra_of_asc_node": 177.9641,
        "meta_arg_of_pericenter": 94.6327,
        "meta_mean_anomaly": 265.5194,
        "meta_ephemeris_type": 0,
        "meta_classification_type": "U",
        "meta_norad_cat_id": 39086,
        "meta_element_set_no": 999,
        "meta_rev_at_epoch": 66996,
        "meta_bstar": 4.5891e-05,
        "meta_mean_motion_dot": 8.1e-07,
        "meta_mean_motion_ddot": 0,
        "tle_line1": "1 39086U 13009A   25354.13013968  .00000081  00000+0  45891-4 0  9998",
        "tle_line2": "2 39086  98.5502 177.9641 0002958  94.6327 265.5194 14.32759395669963"
      },
      "geometry": {
        "type": "Point",
        "coordinates": [
          -172.1412384896522,
          -48.02952181708555
        ]
      }
    },
    {
      "type": "Feature",
      "properties": {
        "norad_id": 39150,
        "name": "GAOFEN-1",
        "group": "resource",
        "lat": -33.998602502454915,
        "lon": -120.4721138437192,
        "alt_km": 647.6122277451632,
        "timestamp": "2025-12-20T09:36:01.288611+00:00",
        "meta_object_name": "GAOFEN-1",
        "meta_object_id": "2013-018A",
        "meta_epoch": "2025-12-20T05:22:54.126912",
        "meta_mean_motion": 14.76491553,
        "meta_eccentricity": 0.0018367,
        "meta_inclination": 97.9326,
        "meta_ra_of_asc_node": 64.7516,
        "meta_arg_of_pericenter": 120.4091,
        "meta_mean_anomaly": 239.8937,
        "meta_ephemeris_type": 0,
        "meta_classification_type": "U",
        "meta_norad_cat_id": 39150,
        "meta_element_set_no": 999,
        "meta_rev_at_epoch": 68183,
        "meta_bstar": 5.9175e-05,
        "meta_mean_motion_dot": 3.62e-06,
        "meta_mean_motion_ddot": 0,
        "tle_line1": "1 39150U 13018A   25354.22423758  .00000362  00000+0  59175-4 0  9994",
        "tle_line2": "2 39150  97.9326  64.7516 0018367 120.4091 239.8937 14.76491553681839"
      },
      "geometry": {
        "type": "Point",
        "coordinates": [
          -120.4721138437192,
          -33.998602502454915
        ]
      }
    },
    {
      "type": "Feature",
      "properties": {
        "norad_id": 39160,
        "name": "VNREDSAT 1",
        "group": "resource",
        "lat": -42.52791933824635,
        "lon": 56.75882214091868,
        "alt_km": 684.3920537841277,
        "timestamp": "2025-12-20T09:36:01.288621+00:00",
        "meta_object_name": "VNREDSAT 1",
        "meta_object_id": "2013-021B",
        "meta_epoch": "2025-12-20T04:52:43.031712",
        "meta_mean_motion": 14.64934073,
        "meta_eccentricity": 0.0001201,
        "meta_inclination": 97.937,
        "meta_ra_of_asc_node": 49.217,
        "meta_arg_of_pericenter": 81.4528,
        "meta_mean_anomaly": 278.6812,
        "meta_ephemeris_type": 0,
        "meta_classification_type": "U",
        "meta_norad_cat_id": 39160,
        "meta_element_set_no": 999,
        "meta_rev_at_epoch": 67408,
        "meta_bstar": 0.00014111,
        "meta_mean_motion_dot": 7.09e-06,
        "meta_mean_motion_ddot": 0,
        "tle_line1": "1 39160U 13021B   25354.20327583  .00000709  00000+0  14111-3 0  9991",
        "tle_line2": "2 39160  97.9370  49.2170 0001201  81.4528 278.6812 14.64934073674081"
      },
      "geometry": {
        "type": "Point",
        "coordinates": [
          56.75882214091868,
          -42.52791933824635
        ]
      }
    }
  ]
}